{
  "type": "FeatureCollection",
  "features": [
    {
      "type": "Feature",
      "properties": {
        "norad_id": 34464,
        "name": "COSMOS 2251 DEB",
        "group": "cosmos-2251-debris",
        "lat": 49.11884782860245,
        "lon": -138.0277021354588,
        "alt_km": 481.0203215437832,
        "timestamp": "2025-12-20T16:47:36.679191+00:00",
        "meta_object_name": "COSMOS 2251 DEB",
        "meta_object_id": "1993-036TH",
        "meta_epoch": "2025-12-20T05:14:05.338176",
        "meta_mean_motion": 15.28056873,
        "meta_eccentricity": 0.0014672,
        "meta_inclination": 73.99,
        "meta_ra_of_asc_node": 62.3687,
        "meta_arg_of_pericenter": 244.6918,
        "meta_mean_anomaly": 115.2764,
        "meta_ephemeris_type": 0,
        "meta_classification_type": "U",
        "meta_norad_cat_id": 34464,
        "meta_element_set_no": 999,
        "meta_rev_at_epoch": 89954,
        "meta_bstar": 0.0019401,
        "meta_mean_motion_dot": 0.00053613,
        "meta_mean_motion_ddot": 0,
        "tle_line1": "1 34464U 93036TH  25354.21811734  .00053613  00000+0  19401-2 0  9992",
        "tle_line2": "2 34464  73.9900  62.3687 0014672 244.6918 115.2764 15.28056873899543"
      },
      "geometry": {
        "type": "Point",
        "coordinates": [
          -138.0277021354588,
          49.11884782860245
        ]
      }
    },
    {
      "type": "Feature",
      "properties": {
        "norad_id": 34468,
        "name": "COSMOS 2251 DEB",
        "group": "cosmos-2251-debris",
        "lat": -40.06961380422646,
        "lon": -63.753795271917575,
        "alt_km": 689.7235795604411,
        "timestamp": "2025-12-20T16:47:36.679200+00:00",
        "meta_object_name": "COSMOS 2251 DEB",
        "meta_object_id": "1993-036TM",
        "meta_epoch": "2025-12-20T10:47:26.215008",
        "meta_mean_motion": 14.47643751,
        "meta_eccentricity": 0.0076315,
        "meta_inclination": 74.0131,
        "meta_ra_of_asc_node": 102.7601,
        "meta_arg_of_pericenter": 246.1206,
        "meta_mean_anomaly": 113.1944,
        "meta_ephemeris_type": 0,
        "meta_classification_type": "U",
        "meta_norad_cat_id": 34468,
        "meta_element_set_no": 999,
        "meta_rev_at_epoch": 88573,
        "meta_bstar": 0.00025436,
        "meta_mean_motion_dot": 9.43e-06,
        "meta_mean_motion_ddot": 0,
        "tle_line1": "1 34468U 93036TM  25354.44960897  .00000943  00000+0  25436-3 0  9990",
        "tle_line2": "2 34468  74.0131 102.7601 0076315 246.1206 113.1944 14.47643751885739"
      },
      "geometry": {
        "type": "Point",
        "coordinates": [
          -63.753795271917575,
          -40.06961380422646
        ]
      }
    },
    {
      "type": "Feature",
      "properties": {
        "norad_id": 34472,
        "name": "COSMOS 2251 DEB",
        "group": "cosmos-2251-debris",
        "lat": -11.268716811737873,
        "lon": -91.6871237432643,
        "alt_km": 777.9658971075269,
        "timestamp": "2025-12-20T16:47:36.679210+00:00",
        "meta_object_name": "COSMOS 2251 DEB",
        "meta_object_id": "1993-036TR",
        "meta_epoch": "2025-12-20T07:05:01.163904",
        "meta_mean_motion": 13.70341623,
        "meta_eccentricity": 0.0327856,
        "meta_inclination": 74.0845,
        "meta_ra_of_asc_node": 85.7189,
        "meta_arg_of_pericenter": 215.0848,
        "meta_mean_anomaly": 142.8284,
        "meta_ephemeris_type": 0,
        "meta_classification_type": "U",
        "meta_norad_cat_id": 34472,
        "meta_element_set_no": 999,
        "meta_rev_at_epoch": 83830,
        "meta_bstar": 0.00049977,
        "meta_mean_motion_dot": 6.22e-06,
        "meta_mean_motion_ddot": 0,
        "tle_line1": "1 34472U 93036TR  25354.29515236  .00000622  00000+0  49977-3 0  9991",
        "tle_line2": "2 34472  74.0845  85.7189 0327856 215.0848 142.8284 13.70341623838308"
      },
      "geometry": {
        "type": "Point",
        "coordinates": [
          -91.6871237432643,
          -11.268716811737873
        ]
      }
    },
    {
      "type": "Feature",
      "properties": {
        "norad_id": 34474,
        "name": "COSMOS 2251 DEB",
        "group": "cosmos-2251-debris",
        "lat": -71.9614972151817,
        "lon": -108.94281773893528,
        "alt_km": 914.4575818347248,
        "timestamp": "2025-12-20T16:47:36.679220+00:00",
        "meta_object_name": "COSMOS 2251 DEB",
        "meta_object_id": "1993-036TT",
        "meta_epoch": "2025-12-20T07:30:43.722720",
        "meta_mean_motion": 14.06468022,
        "meta_eccentricity": 0.0198999,
        "meta_inclination": 74.0783,
        "meta_ra_of_asc_node": 312.9562,
        "meta_arg_of_pericenter": 24.922,
        "meta_mean_anomaly": 98.5475,
        "meta_ephemeris_type": 0,
        "meta_classification_type": "U",
        "meta_norad_cat_id": 34474,
        "meta_element_set_no": 999,
        "meta_rev_at_epoch": 85615,
        "meta_bstar": 0.0017903,
        "meta_mean_motion_dot": 3.519e-05,
        "meta_mean_motion_ddot": 0,
        "tle_line1": "1 34474U 93036TT  25354.31300605  .00003519  00000+0  17903-2 0  9999",
        "tle_line2": "2 34474  74.0783 312.9562 0198999  24.9220  98.5475 14.06468022856151"
      },
      "geometry": {
        "type": "Point",
        "coordinates": [
          -108.94281773893528,
          -71.9614972151817
        ]
      }
    },
    {
      "type": "Feature",
      "properties": {
        "norad_id": 34476,
        "name": "COSMOS 2251 DEB",
        "group": "cosmos-2251-debris",
        "lat": -73.54339905043443,
        "lon": -7.07714417974684,
        "alt_km": 733.2293775111575,
        "timestamp": "2025-12-20T16:47:36.679230+00:00",
        "meta_object_name": "COSMOS 2251 DEB",
        "meta_object_id": "1993-036TV",
        "meta_epoch": "2025-12-19T15:07:53.916960",
        "meta_mean_motion": 13.82094314,
        "meta_eccentricity": 0.0321638,
        "meta_inclination": 74.0055,
        "meta_ra_of_asc_node": 70.8879,
        "meta_arg_of_pericenter": 289.0132,
        "meta_mean_anomaly": 67.6405,
        "meta_ephemeris_type": 0,
        "meta_classification_type": "U",
        "meta_norad_cat_id": 34476,
        "meta_element_set_no": 999,
        "meta_rev_at_epoch": 83733,
        "meta_bstar": 0.0025746,
        "meta_mean_motion_dot": 4.089e-05,
        "meta_mean_motion_ddot": 0,
        "tle_line1": "1 34476U 93036TV  25353.63048515  .00004089  00000+0  25746-2 0  9991",
        "tle_line2": "2 34476  74.0055  70.8879 0321638 289.0132  67.6405 13.82094314837331"
      },
      "geometry": {
        "type": "Point",
        "coordinates": [
          -7.07714417974684,
          -73.54339905043443
        ]
      }
    },
    {
      "type": "Feature",
      "properties": {
        "norad_id": 34477,
        "name": "COSMOS 2251 DEB",
        "group": "cosmos-2251-debris",
        "lat": 28.226099689439675,
        "lon": -134.53934546487093,
        "alt_km": 700.7315864927159,
        "timestamp": "2025-12-20T16:47:36.679240+00:00",
        "meta_object_name": "COSMOS 2251 DEB",
        "meta_object_id": "1993-036TW",
        "meta_epoch": "2025-12-20T04:51:00.824832",
        "meta_mean_motion": 14.56911649,
        "meta_eccentricity": 0.0076825,
        "meta_inclination": 73.9789,
        "meta_ra_of_asc_node": 55.281,
        "meta_arg_of_pericenter": 241.062,
        "meta_mean_anomaly": 181.2592,
        "meta_ephemeris_type": 0,
        "meta_classification_type": "U",
        "meta_norad_cat_id": 34477,
        "meta_element_set_no": 999,
        "meta_rev_at_epoch": 88734,
        "meta_bstar": 0.00052138,
        "meta_mean_motion_dot": 2.404e-05,
        "meta_mean_motion_ddot": 0,
        "tle_line1": "1 34477U 93036TW  25354.20209288  .00002404  00000+0  52138-3 0  9997",
        "tle_line2": "2 34477  73.9789  55.2810 0076825 241.0620 181.2592 14.56911649887348"
      },
      "geometry": {
        "type": "Point",
        "coordinates": [
          -134.53934546487093,
          28.226099689439675
        ]
      }
    },
    {
      "type": "Feature",
      "properties": {
        "norad_id": 34478,
        "name": "COSMOS 2251 DEB",
        "group": "cosmos-2251-debris",
        "lat": 57.71352819813219,
        "lon": 17.433065495143374,
        "alt_km": 554.6696250409286,
        "timestamp": "2025-12-20T16:47:36.679251+00:00",
        "meta_object_name": "COSMOS 2251 DEB",
        "meta_object_id": "1993-036TX",
        "meta_epoch": "2025-12-19T04:27:46.708992",
        "meta_mean_motion": 15.08510334,
        "meta_eccentricity": 0.0034275,
        "meta_inclination": 74.0409,
        "meta_ra_of_asc_node": 353.6176,
        "meta_arg_of_pericenter": 213.3529,
        "meta_mean_anomaly": 270.9757,
        "meta_ephemeris_type": 0,
        "meta_classification_type": "U",
        "meta_norad_cat_id": 34478,
        "meta_element_set_no": 999,
        "meta_rev_at_epoch": 89070,
        "meta_bstar": 0.0020795,
        "meta_mean_motion_dot": 0.00033001,
        "meta_mean_motion_ddot": 0,
        "tle_line1": "1 34478U 93036TX  25353.18595728  .00033001  00000+0  20795-2 0  9991",
        "tle_line2": "2 34478  74.0409 353.6176 0034275 213.3529 270.9757 15.08510334890700"
      },
      "geometry": {
        "type": "Point",
        "coordinates": [
          17.433065495143374,
          57.71352819813219
        ]
      }
    }
  ]
}